[{"OBJECT_NAME":"STARLINK-1277","OBJECT_ID":"2020-019K","EPOCH":"2026-03-10T00:00:02.999808","MEAN_MOTION":15.48940207,"ECCENTRICITY":0.00040314,"INCLINATION":53.0509,"RA_OF_ASC_NODE":151.1274,"ARG_OF_PERICENTER":12.6993,"MEAN_ANOMALY":253.0952,"EPHEMERIS_TYPE":0,"CLASSIFICATION_TYPE":"U","NORAD_CAT_ID":45369,"ELEMENT_SET_NO":999,"REV_AT_EPOCH":575,"BSTAR":0.002005627,"MEAN_MOTION_DOT":0.00111275,"MEAN_MOTION_DDOT":0},{"OBJECT_NAME":"STARLINK-1456","OBJECT_ID":"2020-035S","EPOCH":"2026-03-09T22:34:56.373600","MEAN_MOTION":15.50051869,"ECCENTRICITY":0.00018137,"INCLINATION":53.0504,"RA_OF_ASC_NODE":45.1204,"ARG_OF_PERICENTER":106.2167,"MEAN_ANOMALY":253.9041,"EPHEMERIS_TYPE":0,"CLASSIFICATION_TYPE":"U","NORAD_CAT_ID":45673,"ELEMENT_SET_NO":999,"REV_AT_EPOCH":31906,"BSTAR":0.00055085133,"MEAN_MOTION_DOT":0.00031126,"MEAN_MOTION_DDOT":0}]
